QIANFAN-49              
1 62250U 24232P   25351.28412393  .00000093  00000+0  12539-3 0  9990
2 62250  89.0024  40.7780 0014681 174.4053 185.7265 13.50979801 68450
QIANFAN-50              
1 62251U 24232Q   25351.30878743  .00000095  00000+0  12870-3 0  9999
2 62251  89.0029  40.7839 0016282 176.4067 183.7204 13.50981327 68487
QIANFAN-51              
1 62252U 24232R   25351.29235908  .00000094  00000+0  12751-3 0  9995
2 62252  89.0023  40.7792 0013660 178.7347 181.3841 13.50979411 68474
QIANFAN-52              
1 62253U 24232S   25351.32117247  .00000108  00000+0  14882-3 0  9998
2 62253  89.0019  40.6497 0015909 172.2425 187.8975 13.50977553 68569
QIANFAN-53              
1 62254U 24232T   25351.30057705  .00000081  00000+0  10687-3 0  9998
2 62254  89.0026  40.7567 0014755 172.8238 187.3128 13.50979893 68523
QIANFAN-54              
1 62255U 24232U   25351.34173680  .00000093  00000+0  12514-3 0  9998
2 62255  89.0018  40.4305 0002050 164.4185 195.7030 13.50980145100035
QIANFAN-55              
1 62785U 25016A   25351.29372813  .00000138  00000+0  19525-3 0  9999
2 62785  88.9783 102.7401 0016208 339.7852  20.2655 13.50988684 47803
QIANFAN-56              
1 62786U 25016B   25351.31017149  .00000147  00000+0  20944-3 0  9998
2 62786  88.9756 102.5737 0014918 342.7171  17.3471 13.50979862 47854
